     2.100          NAVIGATION                              RINEX VERSION / TYPE
fic2rin                                 09/01/2016 00:05:13 PGM / RUN BY / DATE
                                                            END OF HEADER
 4 16  8 31 13 59 44.0 -.260483473539D-03 -.227373675443D-12  .000000000000D+00
     .300000000000D+01  .984375000000D+02  .508806908136D-08 -.286570645846D+01
     .484474003315D-05  .842810084578D-02  .112392008305D-04  .515367718506D+04
     .309584000000D+06  .540167093277D-07  .292860516987D+00 -.117346644402D-06
     .983413556859D+00  .175375000000D+03  .900268907722D+00 -.754781439677D-08
     .316084594764D-09  .100000000000D+01  .191200000000D+04  .000000000000D+00
     .240000000000D+01  .630000000000D+02 -.195577740669D-07  .300000000000D+01
     .302406000000D+06  .400000000000D+01
22 16  8 31 13 59 44.0  .257470179349D-03 -.989075488178D-11  .000000000000D+00
     .190000000000D+02  .337500000000D+01  .511449875369D-08  .179153633128D+01
    -.102445483208D-06  .749554892536D-02  .125132501125D-04  .515374564552D+04
     .309584000000D+06 -.204890966415D-07 -.290806464141D+01 -.139698386192D-06
     .923539313005D+00  .117718750000D+03 -.187068852484D+01 -.822819988041D-08
     .278225874939D-09  .100000000000D+01  .191200000000D+04  .000000000000D+00
     .240000000000D+01  .000000000000D+00 -.176951289177D-07  .190000000000D+02
     .302406000000D+06  .400000000000D+01
 1 16  8 31 14  0  0.0  .323019921780D-04  .136424205266D-11  .000000000000D+00
     .110000000000D+03 -.117500000000D+03  .456804742037D-08  .185513011750D+00
    -.606663525105D-05  .586289516650D-02  .728666782379D-05  .515363960266D+04
     .309600000000D+06  .502914190292D-07  .236976713692D+01  .689178705215D-07
     .965249200881D+00  .236593750000D+03  .533459379856D+00 -.827070165078D-08
    -.579667002600D-09  .100000000000D+01  .191200000000D+04  .000000000000D+00
     .340000000000D+01  .000000000000D+00  .512227416039D-08  .110000000000D+03
     .302406000000D+06  .400000000000D+01
 2 16  8 31 14  0  0.0  .558673404157D-03 -.466116034659D-11  .000000000000D+00
     .710000000000D+02 -.105156250000D+03  .513521390227D-08  .615850105383D+00
    -.538676977158D-05  .159034538083D-01  .638701021671D-05  .515362651062D+04
     .309600000000D+06 -.216066837311D-06  .232217997566D+01  .670552253723D-07
     .944019403935D+00  .253437500000D+03 -.208915830283D+01 -.869214777713D-08
    -.610025410007D-09  .100000000000D+01  .191200000000D+04  .000000000000D+00
     .340000000000D+01  .000000000000D+00 -.204890966415D-07  .710000000000D+02
     .302406000000D+06  .400000000000D+01
 3 16  8 31 14  0  0.0 -.842544250190D-04 -.238742359215D-11  .000000000000D+00
     .390000000000D+02  .693750000000D+01  .425017703693D-08 -.328526148158D+00
     .247731804848D-06  .151208019815D-03  .124592334032D-04  .515363793373D+04
     .309600000000D+06  .800937414169D-07 -.287214383783D+01  .000000000000D+00
     .959872921349D+00  .140375000000D+03 -.962170393230D-01 -.782389732530D-08
     .286440502825D-09  .100000000000D+01  .191200000000D+04  .000000000000D+00
     .240000000000D+01  .000000000000D+00  .139698386192D-08  .390000000000D+02
     .302406000000D+06  .400000000000D+01
 5 16  8 31 14  0  0.0 -.942857004702D-04  .261479726760D-11  .000000000000D+00
     .640000000000D+02  .571875000000D+01  .451983112625D-08  .310111190510D+01
     .251457095146D-06  .471888098400D-02  .119600445032D-04  .515359527969D+04
     .309600000000D+06  .130385160446D-07 -.288533246710D+01 -.502914190292D-07
     .946916078284D+00  .142250000000D+03  .492088925548D+00 -.792211570220D-08
     .304655547269D-09  .100000000000D+01  .191200000000D+04  .000000000000D+00
     .240000000000D+01  .000000000000D+00 -.107102096081D-07  .640000000000D+02
     .302406000000D+06  .400000000000D+01
 6 16  8 31 14  0  0.0  .240061432123D-03  .511590769747D-11  .000000000000D+00
     .150000000000D+02 -.116312500000D+03  .445089968355D-08  .461829193611D+00
    -.599771738052D-05  .230672070757D-03  .706687569618D-05  .515376037979D+04
     .309600000000D+06  .149011611938D-07  .236135571784D+01 -.335276126862D-07
     .965056544810D+00  .247625000000D+03 -.136645950632D+01 -.813819613139D-08
    -.516092925913D-09  .100000000000D+01  .191200000000D+04  .000000000000D+00
     .240000000000D+01  .000000000000D+00  .419095158577D-08  .150000000000D+02
     .302406000000D+06  .400000000000D+01
 7 16  8 31 14  0  0.0  .430812593549D-03 -.284217094304D-11  .000000000000D+00
     .125000000000D+03 -.480312500000D+02  .450875923649D-08 -.506715345814D+00
    -.234134495258D-05  .997955061030D-02  .909902155399D-05  .515362797928D+04
     .309600000000D+06  .145286321640D-06 -.754774122435D+00  .987201929092D-07
     .965247053317D+00  .205093750000D+03 -.263984027053D+01 -.813641034272D-08
    -.473233997810D-09  .100000000000D+01  .191200000000D+04  .000000000000D+00
     .240000000000D+01  .000000000000D+00 -.111758708954D-07  .125000000000D+03
     .302406000000D+06  .400000000000D+01
 8 16  8 31 14  0  0.0 -.300360843539D-04 -.147792889038D-11  .000000000000D+00
     .380000000000D+02  .422187500000D+02  .506485382863D-08  .311548363864D+01
     .231899321079D-05  .170101248659D-02  .181980431080D-05  .515373702049D+04
     .309600000000D+06  .130385160446D-07  .130804934503D+01  .875443220139D-07
     .963883907714D+00  .345843750000D+03 -.102309299636D+01 -.858607193007D-08
     .202508435289D-09  .100000000000D+01  .191200000000D+04  .000000000000D+00
     .240000000000D+01  .000000000000D+00  .512227416039D-08  .380000000000D+02
     .302406000000D+06  .400000000000D+01
 9 16  8 31 14  0  0.0  .197350978851D-03  .738964445191D-11  .000000000000D+00
     .880000000000D+02  .263750000000D+02  .497592155282D-08  .220665872726D+01
     .144913792610D-05  .504016410559D-03  .442378222942D-05  .515378577995D+04
     .309600000000D+06 -.465661287308D-07 -.183359246554D+01  .745058059692D-07
     .954231123648D+00  .290437500000D+03  .209799198883D+01 -.834213319762D-08
     .290012080167D-09  .100000000000D+01  .191200000000D+04  .000000000000D+00
     .240000000000D+01  .000000000000D+00  .139698386192D-08  .880000000000D+02
     .302406000000D+06  .400000000000D+01
10 16  8 31 14  0  0.0 -.913846306503D-04 -.534328137292D-11  .000000000000D+00
     .570000000000D+02  .178750000000D+02  .415195866003D-08 -.201688388550D+01
     .955536961555D-06  .168485078029D-02  .121481716633D-04  .515368548965D+04
     .309600000000D+06 -.134110450745D-06 -.287606793710D+01  .316649675369D-07
     .960096278218D+00  .145750000000D+03 -.281701251336D+01 -.773175062988D-08
     .357157734196D-09  .100000000000D+01  .191200000000D+04  .000000000000D+00
     .240000000000D+01  .000000000000D+00  .232830643654D-08  .570000000000D+02
     .302406000000D+06  .400000000000D+01
11 16  8 31 14  0  0.0 -.661942642182D-03 -.238742359215D-11  .000000000000D+00
     .750000000000D+02 -.873125000000D+02  .654991568742D-08 -.398673112484D+00
    -.442564487457D-05  .167933431221D-01  .308640301228D-05  .515367226219D+04
     .309600000000D+06 -.182539224625D-06  .198594535226D+01  .875443220139D-07
     .897539807713D+00  .285375000000D+03  .156439360981D+01 -.960289999933D-08
    -.355371945525D-09  .100000000000D+01  .191200000000D+04  .000000000000D+00
     .340000000000D+01  .000000000000D+00 -.121071934700D-07  .750000000000D+02
     .302406000000D+06  .400000000000D+01
12 16  8 31 14  0  0.0  .388220418245D-03  .341060513165D-12  .000000000000D+00
     .400000000000D+01  .843437500000D+02  .374944189359D-08 -.110778424542D+01
     .458024442196D-05  .604016927537D-02  .105164945126D-04  .515367576790D+04
     .309600000000D+06  .100582838058D-06  .322834574670D+00  .484287738800D-07
     .990476333704D+00  .194625000000D+03  .787398019225D+00 -.763674667258D-08
     .330370904131D-09  .100000000000D+01  .191200000000D+04  .000000000000D+00
     .240000000000D+01  .000000000000D+00 -.125728547573D-07  .400000000000D+01
     .302406000000D+06  .400000000000D+01
13 16  8 31 14  0  0.0 -.409372150898D-04 -.227373675443D-11  .000000000000D+00
     .660000000000D+02  .158750000000D+02  .470376735936D-08  .458021482639D+00
     .750645995140D-06  .403066119179D-02  .387243926525D-05  .515367772102D+04
     .309600000000D+06 -.558793544769D-08 -.171134397664D+01 -.391155481339D-07
     .970476922545D+00  .308750000000D+03  .197203832196D+01 -.834963351004D-08
     .164649715464D-09  .100000000000D+01  .191200000000D+04  .000000000000D+00
     .240000000000D+01  .000000000000D+00 -.111758708954D-07  .660000000000D+02
     .302406000000D+06  .400000000000D+01
14 16  8 31 14  0  0.0 -.326768495142D-04 -.193267624127D-11  .000000000000D+00
     .760000000000D+02  .118437500000D+02  .481555773017D-08  .187328972777D+01
     .556930899620D-06  .895200227387D-02  .410899519920D-05  .515404361534D+04
     .309600000000D+06 -.633299350739D-07 -.174902619211D+01 -.223517417908D-06
     .962989219201D+00  .299750000000D+03 -.195355648789D+01 -.829284543030D-08
     .177150236161D-09  .100000000000D+01  .191200000000D+04  .000000000000D+00
     .240000000000D+01  .000000000000D+00 -.931322574615D-08  .760000000000D+02
     .302406000000D+06  .400000000000D+01
15 16  8 31 14  0  0.0 -.325532630086D-03 -.147792889038D-11  .000000000000D+00
     .710000000000D+02  .368437500000D+02  .558880422470D-08  .155004433206D+01
     .197067856789D-05  .837597833015D-02  .434741377831D-05  .515365259933D+04
     .309600000000D+06 -.819563865662D-07 -.188856450309D+01  .108033418655D-06
     .929964768125D+00  .281375000000D+03  .494563979592D+00 -.877643700240D-08
     .210008747707D-09  .100000000000D+01  .191200000000D+04  .000000000000D+00
     .240000000000D+01  .000000000000D+00 -.107102096081D-07  .710000000000D+02
     .302406000000D+06  .400000000000D+01
